{"type": "FeatureCollection", "features": [ {"type": "Feature", "properties": {"norad_id": 58662, "name": "TIANMU-1 21", "group": "weather", "lat": 39.90133204849792, "lon": -67.94155534027614, "alt_km": 468.32683171101144, "timestamp": "2025-12-18T08:58:43.035352+00:00", "meta": {"OBJECT_NAME": "TIANMU-1 21", "OBJECT_ID": "2023-208C", "EPOCH": "2025-12-17T22:57:46.745856", "MEAN_MOTION": 15.31661281, "ECCENTRICITY": 0.00060545, "INCLINATION": 97.4378, "RA_OF_ASC_NODE": 105.3683, "ARG_OF_PERICENTER": 238.1541, "MEAN_ANOMALY": 121.9111, "EPHEMERIS_TYPE": 0, "CLASSIFICATION_TYPE": "U", "NORAD_CAT_ID": 58662, "ELEMENT_SET_NO": 999, "REV_AT_EPOCH": 10979, "BSTAR": 0.00030027421, "MEAN_MOTION_DOT": 9.108e-05, "MEAN_MOTION_DDOT": 0}, "tle": {"line1": "1 58662U 23208C   25351.95679104  .00009108  00000+0  30027-3 0  9991", "line2": "2 58662  97.4378 105.3683 0006054 238.1541 121.9111 15.31661281109798"}}, "geometry": {"type": "Point", "coordinates": [-67.94155534027614, 39.90133204849792]}}, {"type": "Feature", "properties": {"norad_id": 58663, "name": "TIANMU-1 22", "group": "weather", "lat": -18.197408446485557, "lon": 105.91835074187927, "alt_km": 487.629138816611, "timestamp": "2025-12-18T08:58:43.035378+00:00", "meta": {"OBJECT_NAME": "TIANMU-1 22", "OBJECT_ID": "2023-208D", "EPOCH": "2025-12-17T22:03:17.140896", "MEAN_MOTION": 15.27691418, "ECCENTRICITY": 0.00026907, "INCLINATION": 97.4385, "RA_OF_ASC_NODE": 103.0027, "ARG_OF_PERICENTER": 259.2645, "MEAN_ANOMALY": 100.8292, "EPHEMERIS_TYPE": 0, "CLASSIFICATION_TYPE": "U", "NORAD_CAT_ID": 58663, "ELEMENT_SET_NO": 999, "REV_AT_EPOCH": 10962, "BSTAR": 0.00027439467, "MEAN_MOTION_DOT": 7.352e-05, "MEAN_MOTION_DDOT": 0}, "tle": {"line1": "1 58663U 23208D   25351.91894839  .00007352  00000+0  27439-3 0  9994", "line2": "2 58663  97.4385 103.0027 0002690 259.2645 100.8292 15.27691418109623"}}, "geometry": {"type": "Point", "coordinates": [105.91835074187927, -18.197408446485557]}}, {"type": "Feature", "properties": {"norad_id": 58700, "name": "TIANMU-1 15", "group": "weather", "lat": 45.93779196360819, "lon": 166.03850663366873, "alt_km": 491.5280788701875, "timestamp": "2025-12-18T08:58:43.035395+00:00", "meta": {"OBJECT_NAME": "TIANMU-1 15", "OBJECT_ID": "2024-004A", "EPOCH": "2025-12-17T23:19:24.809952", "MEAN_MOTION": 15.24475659, "ECCENTRICITY": 0.00059512, "INCLINATION": 97.4621, "RA_OF_ASC_NODE": 173.4216, "ARG_OF_PERICENTER": 268.3018, "MEAN_ANOMALY": 91.7537, "EPHEMERIS_TYPE": 0, "CLASSIFICATION_TYPE": "U", "NORAD_CAT_ID": 58700, "ELEMENT_SET_NO": 999, "REV_AT_EPOCH": 10814, "BSTAR": 0.0002424887, "MEAN_MOTION_DOT": 5.887e-05, "MEAN_MOTION_DDOT": 0}, "tle": {"line1": "1 58700U 24004A   25351.97181493  .00005887  00000+0  24249-3 0  9999", "line2": "2 58700  97.4621 173.4216 0005951 268.3018  91.7537 15.24475659108147"}}, "geometry": {"type": "Point", "coordinates": [166.03850663366873, 45.93779196360819]}}, {"type": "Feature", "properties": {"norad_id": 58701, "name": "TIANMU-1 16", "group": "weather", "lat": 50.822841686221565, "lon": 2.454155793909432, "alt_km": 490.01951070923224, "timestamp": "2025-12-18T08:58:43.035411+00:00", "meta": {"OBJECT_NAME": "TIANMU-1 16", "OBJECT_ID": "2024-004B", "EPOCH": "2025-12-17T22:57:53.146368", "MEAN_MOTION": 15.24501895, "ECCENTRICITY": 0.00043411, "INCLINATION": 97.4561, "RA_OF_ASC_NODE": 172.7909, "ARG_OF_PERICENTER": 272.8547, "MEAN_ANOMALY": 87.2193, "EPHEMERIS_TYPE": 0, "CLASSIFICATION_TYPE": "U", "NORAD_CAT_ID": 58701, "ELEMENT_SET_NO": 999, "REV_AT_EPOCH": 10814, "BSTAR": 0.00021973357, "MEAN_MOTION_DOT": 5.331e-05, "MEAN_MOTION_DDOT": 0}, "tle": {"line1": "1 58701U 24004B   25351.95686512  .00005331  00000+0  21973-3 0  9995", "line2": "2 58701  97.4561 172.7909 0004341 272.8547  87.2193 15.24501895108141"}}, "geometry": {"type": "Point", "coordinates": [2.454155793909432, 50.822841686221565]}}, {"type": "Feature", "properties": {"norad_id": 58702, "name": "TIANMU-1 17", "group": "weather", "lat": -33.66428898598467, "lon": -11.387100635676159, "alt_km": 497.1864929485573, "timestamp": "2025-12-18T08:58:43.035427+00:00", "meta": {"OBJECT_NAME": "TIANMU-1 17", "OBJECT_ID": "2024-004C", "EPOCH": "2025-12-17T22:35:29.306688", "MEAN_MOTION": 15.24545277, "ECCENTRICITY": 0.00035079, "INCLINATION": 97.4595, "RA_OF_ASC_NODE": 173.1883, "ARG_OF_PERICENTER": 275.2829, "MEAN_ANOMALY": 84.8008, "EPHEMERIS_TYPE": 0, "CLASSIFICATION_TYPE": "U", "NORAD_CAT_ID": 58702, "ELEMENT_SET_NO": 999, "REV_AT_EPOCH": 10813, "BSTAR": 0.00022523148, "MEAN_MOTION_DOT": 5.473e-05, "MEAN_MOTION_DDOT": 0}, "tle": {"line1": "1 58702U 24004C   25351.94131142  .00005473  00000+0  22523-3 0  9998", "line2": "2 58702  97.4595 173.1883 0003507 275.2829  84.8008 15.24545277108137"}}, "geometry": {"type": "Point", "coordinates": [-11.387100635676159, -33.66428898598467]}}, {"type": "Feature", "properties": {"norad_id": 58703, "name": "TIANMU-1 18", "group": "weather", "lat": -54.21732557724853, "lon": -175.70803333182786, "alt_km": 497.58780135193865, "timestamp": "2025-12-18T08:58:43.035454+00:00", "meta": {"OBJECT_NAME": "TIANMU-1 18", "OBJECT_ID": "2024-004D", "EPOCH": "2025-12-17T23:46:02.769312", "MEAN_MOTION": 15.24531964, "ECCENTRICITY": 0.00028662, "INCLINATION": 97.4612, "RA_OF_ASC_NODE": 173.4335, "ARG_OF_PERICENTER": 273.4231, "MEAN_ANOMALY": 86.6679, "EPHEMERIS_TYPE": 0, "CLASSIFICATION_TYPE": "U", "NORAD_CAT_ID": 58703, "ELEMENT_SET_NO": 999, "REV_AT_EPOCH": 10814, "BSTAR": 0.00023802777, "MEAN_MOTION_DOT": 5.785e-05, "MEAN_MOTION_DDOT": 0}, "tle": {"line1": "1 58703U 24004D   25351.99030983  .00005785  00000+0  23803-3 0  9993", "line2": "2 58703  97.4612 173.4335 0002866 273.4231  86.6679 15.24531964108140"}}, "geometry": {"type": "Point", "coordinates": [-175.70803333182786, -54.21732557724853]}}, {"type": "Feature", "properties": {"norad_id": 58990, "name": "INSAT-3DS", "group": "weather", "lat": -0.0301591042478564, "lon": -55.98895853470319, "alt_km": 35781.992948760024, "timestamp": "2025-12-18T08:58:43.035472+00:00", "meta": {"OBJECT_NAME": "INSAT-3DS", "OBJECT_ID": "2024-033A", "EPOCH": "2025-12-17T20:33:53.963712", "MEAN_MOTION": 1.00272499, "ECCENTRICITY": 0.00011044, "INCLINATION": 0.0493, "RA_OF_ASC_NODE": 112.5941, "ARG_OF_PERICENTER": 158.3022, "MEAN_ANOMALY": 206.4038, "EPHEMERIS_TYPE": 0, "CLASSIFICATION_TYPE": "U", "NORAD_CAT_ID": 58990, "ELEMENT_SET_NO": 999, "REV_AT_EPOCH": 4525, "BSTAR": 0, "MEAN_MOTION_DOT": -1.31e-06, "MEAN_MOTION_DDOT": 0}, "tle": {"line1": "1 58990U 24033A   25351.85687458 -.00000131  00000+0  00000+0 0  9994", "line2": "2 58990   0.0493 112.5941 0001104 158.3022 206.4038  1.00272499 45252"}}, "geometry": {"type": "Point", "coordinates": [-55.98895853470319, -0.0301591042478564]}}, {"type": "Feature", "properties": {"norad_id": 59051, "name": "METEOR-M2 4", "group": "weather", "lat": -32.014506457481005, "lon": 123.71578084887724, "alt_km": 826.3745402108607, "timestamp": "2025-12-18T08:58:43.035505+00:00", "meta": {"OBJECT_NAME": "METEOR-M2 4", "OBJECT_ID": "2024-039A", "EPOCH": "2025-12-17T23:32:30.729408", "MEAN_MOTION": 14.22402115, "ECCENTRICITY": 0.00067595, "INCLINATION": 98.6773, "RA_OF_ASC_NODE": 308.8077, "ARG_OF_PERICENTER": 343.1906, "MEAN_ANOMALY": 16.9047, "EPHEMERIS_TYPE": 0, "CLASSIFICATION_TYPE": "U", "NORAD_CAT_ID": 59051, "ELEMENT_SET_NO": 999, "REV_AT_EPOCH": 9350, "BSTAR": 2.5569346e-05, "MEAN_MOTION_DOT": 1.3e-07, "MEAN_MOTION_DDOT": 0}, "tle": {"line1": "1 59051U 24039A   25351.98091122  .00000013  00000+0  25569-4 0  9990", "line2": "2 59051  98.6773 308.8077 0006759 343.1906  16.9047 14.22402115 93504"}}, "geometry": {"type": "Point", "coordinates": [123.71578084887724, -32.014506457481005]}}, {"type": "Feature", "properties": {"norad_id": 60133, "name": "GOES 19", "group": "weather", "lat": -0.003649546812585656, "lon": 146.7175037860183, "alt_km": 35790.51762501456, "timestamp": "2025-12-18T08:58:43.035534+00:00", "meta": {"OBJECT_NAME": "GOES 19", "OBJECT_ID": "2024-119A", "EPOCH": "2025-12-17T18:06:02.613024", "MEAN_MOTION": 1.00271808, "ECCENTRICITY": 0.00010452, "INCLINATION": 0.0152, "RA_OF_ASC_NODE": 164.1921, "ARG_OF_PERICENTER": 158.7491, "MEAN_ANOMALY": 320.0095, "EPHEMERIS_TYPE": 0, "CLASSIFICATION_TYPE": "U", "NORAD_CAT_ID": 60133, "ELEMENT_SET_NO": 999, "REV_AT_EPOCH": 514, "BSTAR": 0, "MEAN_MOTION_DOT": -2.23e-06, "MEAN_MOTION_DDOT": 0}, "tle": {"line1": "1 60133U 24119A   25351.75419691 -.00000223  00000+0  00000+0 0  9994", "line2": "2 60133   0.0152 164.1921 0001045 158.7491 320.0095  1.00271808  5148"}}, "geometry": {"type": "Point", "coordinates": [146.7175037860183, -0.003649546812585656]}}, {"type": "Feature", "properties": {"norad_id": 65815, "name": "FENGYUN 3H", "group": "weather", "lat": 40.06662344149188, "lon": -75.52164069582523, "alt_km": 822.2565389664478, "timestamp": "2025-12-18T08:58:43.035555+00:00", "meta": {"OBJECT_NAME": "FENGYUN 3H", "OBJECT_ID": "2025-219A", "EPOCH": "2025-12-17T20:56:58.161696", "MEAN_MOTION": 14.19906122, "ECCENTRICITY": 6.852e-05, "INCLINATION": 98.659, "RA_OF_ASC_NODE": 291.3519, "ARG_OF_PERICENTER": 101.7685, "MEAN_ANOMALY": 258.3568, "EPHEMERIS_TYPE": 0, "CLASSIFICATION_TYPE": "U", "NORAD_CAT_ID": 65815, "ELEMENT_SET_NO": 999, "REV_AT_EPOCH": 1165, "BSTAR": 4.9240108e-05, "MEAN_MOTION_DOT": 6.1e-07, "MEAN_MOTION_DDOT": 0}, "tle": {"line1": "1 65815U 25219A   25351.87289539  .00000061  00000+0  49240-4 0  9990", "line2": "2 65815  98.6590 291.3519 0000685 101.7685 258.3568 14.19906122 11656"}}, "geometry": {"type": "Point", "coordinates": [-75.52164069582523, 40.06662344149188]}}]}